STARLINK-30556          
1 58031U 23156D   26068.25197209 -.00000564  00000+0 -69054-5 0  9996
2 58031  53.1604  90.4239 0001273 102.6624 257.4520 15.30189725136094
TANSTAAFL-2             
1 62378U 24247B   26067.20753490  .00013897  00000+0  50872-3 0  9998
2 62378  44.9880 125.0934 0003072 298.8909  61.1666 15.28016845 67506
